start=new Date('2021-09-21T00:00:00.000Z').valueOf();
sats=[{"EPOCH":"2021-09-20T18:37:54.458400","EPHEMERIS_TYPE":"0","LAUNCH_DATE":"2020-09-03","MEAN_MOTION_DOT":"-0.00000966","MEAN_MOTION_DDOT":"0.0000000000000","INCLINATION":"53.0554","OBJECT_ID":"2020-062BB","FILE":"3121356","BSTAR":"-0.00004591700000","ECCENTRICITY":"0.00039310","OBJECT_NAME":"STARLINK-1711","GP_ID":"185124191","REF_FRAME":"TEME","CLASSIFICATION_TYPE":"U","TIME_SYSTEM":"UTC","RA_OF_ASC_NODE":"68.0774","DECAY_DATE":null,"PERIOD":"95.592","ARG_OF_PERICENTER":"263.4900","TLE_LINE1":"1 46374U 20062BB  21263.77632475 -.00000966  00000-0 -45917-4 0  9992","APOAPSIS":"549.947","MEAN_ELEMENT_THEORY":"SGP4","SITE":"AFETR","ELEMENT_SET_NO":"999","MEAN_MOTION":"15.06396310","CENTER_NAME":"EARTH","NORAD_CAT_ID":"46374","MEAN_ANOMALY":"96.5641","OBJECT_TYPE":"PAYLOAD","SEMIMAJOR_AXIS":"6925.360","COUNTRY_CODE":"US","PERIAPSIS":"544.503","RCS_SIZE":"LARGE","TLE_LINE2":"2 46374  53.0554  68.0774 0003931 263.4900  96.5641 15.06396310 59470","REV_AT_EPOCH":"5947"},{"RCS_SIZE":"LARGE","TLE_LINE2":"2 46375  53.0557  93.0127 0001962  89.9288 270.1925 15.06398833 59125","REV_AT_EPOCH":"5912","SEMIMAJOR_AXIS":"6925.352","COUNTRY_CODE":"US","PERIAPSIS":"545.858","MEAN_MOTION":"15.06398833","CENTER_NAME":"EARTH","MEAN_ANOMALY":"270.1925","OBJECT_TYPE":"PAYLOAD","NORAD_CAT_ID":"46375","TLE_LINE1":"1 46375U 20062BC  21263.79062061  .00000769  00000-0  70553-4 0  9996","APOAPSIS":"548.576","MEAN_ELEMENT_THEORY":"SGP4","ARG_OF_PERICENTER":"89.9288","PERIOD":"95.592","ELEMENT_SET_NO":"999","SITE":"AFETR","REF_FRAME":"TEME","RA_OF_ASC_NODE":"93.0127","DECAY_DATE":null,"CLASSIFICATION_TYPE":"U","TIME_SYSTEM":"UTC","OBJECT_NAME":"STARLINK-1724","GP_ID":"185123941","INCLINATION":"53.0557","OBJECT_ID":"2020-062BC","FILE":"3121356","ECCENTRICITY":"0.00019620","BSTAR":"0.00007055300000","LAUNCH_DATE":"2020-09-03","EPOCH":"2021-09-20T18:58:29.620704","EPHEMERIS_TYPE":"0","MEAN_MOTION_DOT":"0.00000769","MEAN_MOTION_DDOT":"0.0000000000000"},{"REF_FRAME":"TEME","TIME_SYSTEM":"UTC","CLASSIFICATION_TYPE":"U","DECAY_DATE":null,"RA_OF_ASC_NODE":"92.9537","OBJECT_NAME":"STARLINK-1742","GP_ID":"185122689","FILE":"3121356","INCLINATION":"53.0551","OBJECT_ID":"2020-062BD","BSTAR":"-0.00005835400000","ECCENTRICITY":"0.00020050","EPHEMERIS_TYPE":"0","EPOCH":"2021-09-20T19:19:43.354560","LAUNCH_DATE":"2020-09-03","MEAN_MOTION_DDOT":"0.0000000000000","MEAN_MOTION_DOT":"-0.00001151","RCS_SIZE":"LARGE","TLE_LINE2":"2 46376  53.0551  92.9537 0002005  92.6101 267.5117 15.06395218 59124","REV_AT_EPOCH":"5912","SEMIMAJOR_AXIS":"6925.363","COUNTRY_CODE":"US","PERIAPSIS":"545.840","MEAN_MOTION":"15.06395218","CENTER_NAME":"EARTH","NORAD_CAT_ID":"46376","OBJECT_TYPE":"PAYLOAD","MEAN_ANOMALY":"267.5117","PERIOD":"95.592","ARG_OF_PERICENTER":"92.6101","APOAPSIS":"548.617","MEAN_ELEMENT_THEORY":"SGP4","TLE_LINE1":"1 46376U 20062BD  21263.80536290 -.00001151  00000-0 -58354-4 0  9992","SITE":"AFETR","ELEMENT_SET_NO":"999"},{"RCS_SIZE":"LARGE","TLE_LINE2":"2 46378  53.0557  92.9030 0001907  93.5687 266.5520 15.06402706 59127","REV_AT_EPOCH":"5912","COUNTRY_CODE":"US","SEMIMAJOR_AXIS":"6925.340","PERIAPSIS":"545.885","CENTER_NAME":"EARTH","MEAN_MOTION":"15.06402706","OBJECT_TYPE":"PAYLOAD","MEAN_ANOMALY":"266.5520","NORAD_CAT_ID":"46378","MEAN_ELEMENT_THEORY":"SGP4","APOAPSIS":"548.526","TLE_LINE1":"1 46378U 20062BF  21263.81642268  .00000650  00000-0  62545-4 0  9996","PERIOD":"95.592","ARG_OF_PERICENTER":"93.5687","SITE":"AFETR","ELEMENT_SET_NO":"999","REF_FRAME":"TEME","DECAY_DATE":null,"RA_OF_ASC_NODE":"92.9030","TIME_SYSTEM":"UTC","CLASSIFICATION_TYPE":"U","OBJECT_NAME":"STARLINK-1751","GP_ID":"185123440","FILE":"3121356","INCLINATION":"53.0557","OBJECT_ID":"2020-062BF","ECCENTRICITY":"0.00019070","BSTAR":"0.00006254500000","LAUNCH_DATE":"2020-09-03","EPHEMERIS_TYPE":"0","EPOCH":"2021-09-20T19:35:38.919552","MEAN_MOTION_DDOT":"0.0000000000000","MEAN_MOTION_DOT":"0.00000650"},{"REV_AT_EPOCH":"6060","TLE_LINE2":"2 46379  53.0336 345.6388 0002208  33.5753 326.5410 15.86614897 60604","RCS_SIZE":"LARGE","PERIAPSIS":"310.306","SEMIMAJOR_AXIS":"6689.918","COUNTRY_CODE":"US","NORAD_CAT_ID":"46379","MEAN_ANOMALY":"326.5410","OBJECT_TYPE":"PAYLOAD","MEAN_MOTION":"15.86614897","CENTER_NAME":"EARTH","SITE":"AFETR","ELEMENT_SET_NO":"999","PERIOD":"90.759","ARG_OF_PERICENTER":"33.5753","TLE_LINE1":"1 46379U 20062BG  21263.60984575  .00104657  00000-0  40175-3 0  9990","APOAPSIS":"313.261","MEAN_ELEMENT_THEORY":"SGP4","CLASSIFICATION_TYPE":"U","TIME_SYSTEM":"UTC","RA_OF_ASC_NODE":"345.6388","DECAY_DATE":null,"REF_FRAME":"TEME","GP_ID":"185123691","OBJECT_NAME":"STARLINK-1756","BSTAR":"0.00040175000000","ECCENTRICITY":"0.00022080","INCLINATION":"53.0336","OBJECT_ID":"2020-062BG","FILE":"3121356","MEAN_MOTION_DOT":"0.00104657","MEAN_MOTION_DDOT":"0.0000000000000","EPOCH":"2021-09-20T14:38:10.672800","EPHEMERIS_TYPE":"0","LAUNCH_DATE":"2020-09-03"},{"ELEMENT_SET_NO":"999","SITE":"AFETR","PERIOD":"95.592","ARG_OF_PERICENTER":"83.7440","APOAPSIS":"548.661","MEAN_ELEMENT_THEORY":"SGP4","TLE_LINE1":"1 46380U 20062BH  21263.83807254 -.00000812  00000-0 -35623-4 0  9998","NORAD_CAT_ID":"46380","OBJECT_TYPE":"PAYLOAD","MEAN_ANOMALY":"276.3786","MEAN_MOTION":"15.06397651","CENTER_NAME":"EARTH","PERIAPSIS":"545.780","COUNTRY_CODE":"US","SEMIMAJOR_AXIS":"6925.356","REV_AT_EPOCH":"5878","TLE_LINE2":"2 46380  53.0524 117.7996 0002080  83.7440 276.3786 15.06397651 58788","RCS_SIZE":"LARGE","MEAN_MOTION_DDOT":"0.0000000000000","MEAN_MOTION_DOT":"-0.00000812","EPHEMERIS_TYPE":"0","EPOCH":"2021-09-20T20:06:49.467456","LAUNCH_DATE":"2020-09-03","BSTAR":"-0.00003562300000","ECCENTRICITY":"0.00020800","FILE":"3121356","INCLINATION":"53.0524","OBJECT_ID":"2020-062BH","GP_ID":"185124442","OBJECT_NAME":"STARLINK-1758","TIME_SYSTEM":"UTC","CLASSIFICATION_TYPE":"U","DECAY_DATE":null,"RA_OF_ASC_NODE":"117.7996","REF_FRAME":"TEME"},{"PERIAPSIS":"545.932","COUNTRY_CODE":"US","SEMIMAJOR_AXIS":"6925.370","REV_AT_EPOCH":"5913","RCS_SIZE":"LARGE","TLE_LINE2":"2 46382  53.0544  92.8873 0001881  95.8708 264.2495 15.06393084 59137","SITE":"AFETR","ELEMENT_SET_NO":"999","TLE_LINE1":"1 46382U 20062BK  21263.82011877  .00001157  00000-0  96574-4 0  9990","APOAPSIS":"548.537","MEAN_ELEMENT_THEORY":"SGP4","ARG_OF_PERICENTER":"95.8708","PERIOD":"95.593","MEAN_ANOMALY":"264.2495","OBJECT_TYPE":"PAYLOAD","NORAD_CAT_ID":"46382","MEAN_MOTION":"15.06393084","CENTER_NAME":"EARTH","GP_ID":"185123190","OBJECT_NAME":"STARLINK-1769","RA_OF_ASC_NODE":"92.8873","DECAY_DATE":null,"CLASSIFICATION_TYPE":"U","TIME_SYSTEM":"UTC","REF_FRAME":"TEME","MEAN_MOTION_DOT":"0.00001157","MEAN_MOTION_DDOT":"0.0000000000000","LAUNCH_DATE":"2020-09-03","EPOCH":"2021-09-20T19:40:58.261728","EPHEMERIS_TYPE":"0","ECCENTRICITY":"0.00018810","BSTAR":"0.00009657400000","INCLINATION":"53.0544","OBJECT_ID":"2020-062BK","FILE":"3121356"},{"MEAN_MOTION_DDOT":"0.0000000000000","MEAN_MOTION_DOT":"-0.00002132","EPHEMERIS_TYPE":"0","EPOCH":"2021-09-20T22:32:47.359392","LAUNCH_DATE":"2020-09-03","BSTAR":"-0.00012430000000","ECCENTRICITY":"0.00019920","FILE":"3121356","INCLINATION":"53.0549","OBJECT_ID":"2020-062BL","GP_ID":"185122940","OBJECT_NAME":"STARLINK-1770","TIME_SYSTEM":"UTC","CLASSIFICATION_TYPE":"U","DECAY_DATE":null,"RA_OF_ASC_NODE":"137.3450","REF_FRAME":"TEME","SITE":"AFETR","ELEMENT_SET_NO":"999","PERIOD":"95.593","ARG_OF_PERICENTER":"78.1810","APOAPSIS":"548.621","MEAN_ELEMENT_THEORY":"SGP4","TLE_LINE1":"1 46383U 20062BL  21263.93943703 -.00002132  00000-0 -12430-3 0  9999","NORAD_CAT_ID":"46383","OBJECT_TYPE":"PAYLOAD","MEAN_ANOMALY":"281.9402","MEAN_MOTION":"15.06390977","CENTER_NAME":"EARTH","PERIAPSIS":"545.862","COUNTRY_CODE":"US","SEMIMAJOR_AXIS":"6925.376","REV_AT_EPOCH":"5851","TLE_LINE2":"2 46383  53.0549 137.3450 0001992  78.1810 281.9402 15.06390977 58513","RCS_SIZE":"LARGE"},{"PERIAPSIS":"545.782","SEMIMAJOR_AXIS":"6925.359","COUNTRY_CODE":"US","REV_AT_EPOCH":"5851","RCS_SIZE":"LARGE","TLE_LINE2":"2 46384  53.0534 137.3182 0002083  68.2371 291.8839 15.06396489 58512","ELEMENT_SET_NO":"999","SITE":"AFETR","PERIOD":"95.592","ARG_OF_PERICENTER":"68.2371","APOAPSIS":"548.667","MEAN_ELEMENT_THEORY":"SGP4","TLE_LINE1":"1 46384U 20062BM  21263.94311738  .00000691  00000-0  65300-4 0  9999","NORAD_CAT_ID":"46384","OBJECT_TYPE":"PAYLOAD","MEAN_ANOMALY":"291.8839","MEAN_MOTION":"15.06396489","CENTER_NAME":"EARTH","GP_ID":"185124192","OBJECT_NAME":"STARLINK-1771","TIME_SYSTEM":"UTC","CLASSIFICATION_TYPE":"U","DECAY_DATE":null,"RA_OF_ASC_NODE":"137.3182","REF_FRAME":"TEME","MEAN_MOTION_DDOT":"0.0000000000000","MEAN_MOTION_DOT":"0.00000691","EPHEMERIS_TYPE":"0","EPOCH":"2021-09-20T22:38:05.341632","LAUNCH_DATE":"2020-09-03","BSTAR":"0.00006530000000","ECCENTRICITY":"0.00020830","FILE":"3121356","INCLINATION":"53.0534","OBJECT_ID":"2020-062BM"},{"ECCENTRICITY":"0.00008860","BSTAR":"0.00006191800000","INCLINATION":"53.0539","OBJECT_ID":"2020-070A","FILE":"3121356","MEAN_MOTION_DOT":"0.00000641","MEAN_MOTION_DDOT":"0.0000000000000","LAUNCH_DATE":"2020-10-06","EPOCH":"2021-09-20T19:27:00.928224","EPHEMERIS_TYPE":"0","RA_OF_ASC_NODE":"297.9291","DECAY_DATE":null,"CLASSIFICATION_TYPE":"U","TIME_SYSTEM":"UTC","REF_FRAME":"TEME","GP_ID":"185124206","OBJECT_NAME":"STARLINK-1644","MEAN_ANOMALY":"291.6923","OBJECT_TYPE":"PAYLOAD","NORAD_CAT_ID":"46532","MEAN_MOTION":"15.06400822","CENTER_NAME":"EARTH","SITE":"AFETR","ELEMENT_SET_NO":"999","TLE_LINE1":"1 46532U 20070A   21263.81042741  .00000641  00000-0  61918-4 0  9990","MEAN_ELEMENT_THEORY":"SGP4","APOAPSIS":"547.825","PERIOD":"95.592","ARG_OF_PERICENTER":"68.4160","REV_AT_EPOCH":"5369","TLE_LINE2":"2 46532  53.0539 297.9291 0000886  68.4160 291.6923 15.06400822 53696","RCS_SIZE":"LARGE","PERIAPSIS":"546.597","SEMIMAJOR_AXIS":"6925.346","COUNTRY_CODE":"US"}];
